IRIDIUM 63              
1 25286U 98021B   25185.17541154  .00000259  00000+0  81401-4 0  9995
2 25286  86.3966  75.0054 0002043  88.6059 271.5372 14.36555635426551
IRIDIUM 69              
1 25319U 98026A   25185.13593821  .00000383  00000+0  11298-3 0  9995
2 25319  86.3967  88.2619 0002413  23.6637 336.4673 14.40981158425747
IRIDIUM 71              
1 25320U 98026B   25184.79339040  .00000294  00000+0  85150-4 0  9999
2 25320  86.3963  83.0940 0003860  58.8485 301.3093 14.41169006425987
IRIDIUM 82              
1 25467U 98051A   25185.19929069  .00017861  00000+0  50414-3 0  9992
2 25467  86.3663 101.3698 0081404 230.4491 128.9549 15.32900831426569
